{"type": "FeatureCollection", "features": [ {"type": "Feature", "properties": {"norad_id": 66052, "name": "HRC MONOBLOCK CAMERA", "group": "stations", "lat": 22.39790906558113, "lon": -84.82373543744224, "alt_km": 399.9827909771766, "timestamp": "2025-12-18T04:58:33.358749+00:00", "meta": {"OBJECT_NAME": "HRC MONOBLOCK CAMERA", "OBJECT_ID": "1998-067XR", "EPOCH": "2025-12-17T20:36:55.440000", "MEAN_MOTION": 15.54495982, "ECCENTRICITY": 0.00027135, "INCLINATION": 51.6291, "RA_OF_ASC_NODE": 115.974, "ARG_OF_PERICENTER": 206.7069, "MEAN_ANOMALY": 153.3783, "EPHEMERIS_TYPE": 0, "CLASSIFICATION_TYPE": "U", "NORAD_CAT_ID": 66052, "ELEMENT_SET_NO": 999, "REV_AT_EPOCH": 963, "BSTAR": 0.00045614102, "MEAN_MOTION_DOT": 0.0003024, "MEAN_MOTION_DDOT": 0}, "tle": {"line1": "1 66052U 98067XR  25351.85897500  .00030240  00000+0  45614-3 0  9998", "line2": "2 66052  51.6291 115.9740 0002713 206.7069 153.3783 15.54495982  9635"}}, "geometry": {"type": "Point", "coordinates": [-84.82373543744224, 22.39790906558113]}}, {"type": "Feature", "properties": {"norad_id": 66174, "name": "HTV-X1", "group": "stations", "lat": -36.649183116175884, "lon": 79.28386809473548, "alt_km": 420.29358438131567, "timestamp": "2025-12-18T04:58:33.358760+00:00", "meta": {"OBJECT_NAME": "HTV-X1", "OBJECT_ID": "2025-241A", "EPOCH": "2025-12-17T19:54:10.621440", "MEAN_MOTION": 15.49640803, "ECCENTRICITY": 0.00031686, "INCLINATION": 51.6309, "RA_OF_ASC_NODE": 117.2752, "ARG_OF_PERICENTER": 263.8701, "MEAN_ANOMALY": 96.1927, "EPHEMERIS_TYPE": 0, "CLASSIFICATION_TYPE": "U", "NORAD_CAT_ID": 66174, "ELEMENT_SET_NO": 999, "REV_AT_EPOCH": 51, "BSTAR": 0.00014328078, "MEAN_MOTION_DOT": 7.629e-05, "MEAN_MOTION_DDOT": 0}, "tle": {"line1": "1 66174U 25241A   25351.82928960  .00007629  00000+0  14328-3 0  9992", "line2": "2 66174  51.6309 117.2752 0003168 263.8701  96.1927 15.49640803   510"}}, "geometry": {"type": "Point", "coordinates": [79.28386809473548, -36.649183116175884]}}, {"type": "Feature", "properties": {"norad_id": 66515, "name": "SZ-21 MODULE", "group": "stations", "lat": -37.6432839666674, "lon": -136.4904788939392, "alt_km": 379.7275183422162, "timestamp": "2025-12-18T04:58:33.358770+00:00", "meta": {"OBJECT_NAME": "SZ-21 MODULE", "OBJECT_ID": "2025-246C", "EPOCH": "2025-12-17T06:26:59.040960", "MEAN_MOTION": 15.62718015, "ECCENTRICITY": 0.00059901, "INCLINATION": 41.4771, "RA_OF_ASC_NODE": 348.414, "ARG_OF_PERICENTER": 284.3104, "MEAN_ANOMALY": 75.707, "EPHEMERIS_TYPE": 0, "CLASSIFICATION_TYPE": "U", "NORAD_CAT_ID": 66515, "ELEMENT_SET_NO": 999, "REV_AT_EPOCH": 515, "BSTAR": 0.00025031156, "MEAN_MOTION_DOT": 0.00022864, "MEAN_MOTION_DDOT": 0}, "tle": {"line1": "1 66515U 25246C   25351.26873890  .00022864  00000+0  25031-3 0  9996", "line2": "2 66515  41.4771 348.4140 0005990 284.3104  75.7070 15.62718015  5151"}}, "geometry": {"type": "Point", "coordinates": [-136.4904788939392, -37.6432839666674]}}, {"type": "Feature", "properties": {"norad_id": 66645, "name": "SHENZHOU-22", "group": "stations", "lat": -41.37088793922783, "lon": -102.27925738392199, "alt_km": 397.5062685063858, "timestamp": "2025-12-18T04:58:33.358781+00:00", "meta": {"OBJECT_NAME": "SHENZHOU-22", "OBJECT_ID": "2025-272A", "EPOCH": "2025-12-17T17:03:03.263616", "MEAN_MOTION": 15.59389869, "ECCENTRICITY": 0.00077031, "INCLINATION": 41.4683, "RA_OF_ASC_NODE": 346.526, "ARG_OF_PERICENTER": 74.1787, "MEAN_ANOMALY": 285.99, "EPHEMERIS_TYPE": 0, "CLASSIFICATION_TYPE": "U", "NORAD_CAT_ID": 66645, "ELEMENT_SET_NO": 999, "REV_AT_EPOCH": 26357, "BSTAR": 0.00025361987, "MEAN_MOTION_DOT": 0.0002035, "MEAN_MOTION_DDOT": 0}, "tle": {"line1": "1 66645U 25272A   25351.71045444  .00020350  00000+0  25362-3 0  9990", "line2": "2 66645  41.4683 346.5260 0007703  74.1787 285.9900 15.59389869263571"}}, "geometry": {"type": "Point", "coordinates": [-102.27925738392199, -41.37088793922783]}}, {"type": "Feature", "properties": {"norad_id": 66664, "name": "SOYUZ-MS 28", "group": "stations", "lat": -36.64918184910612, "lon": 79.28387002356632, "alt_km": 420.293584370439, "timestamp": "2025-12-18T04:58:33.358791+00:00", "meta": {"OBJECT_NAME": "SOYUZ-MS 28", "OBJECT_ID": "2025-275A", "EPOCH": "2025-12-17T19:54:10.621440", "MEAN_MOTION": 15.49640803, "ECCENTRICITY": 0.00031686, "INCLINATION": 51.6309, "RA_OF_ASC_NODE": 117.2752, "ARG_OF_PERICENTER": 263.8701, "MEAN_ANOMALY": 96.1927, "EPHEMERIS_TYPE": 0, "CLASSIFICATION_TYPE": "U", "NORAD_CAT_ID": 66664, "ELEMENT_SET_NO": 999, "REV_AT_EPOCH": 128, "BSTAR": 0.00014328078, "MEAN_MOTION_DOT": 7.629e-05, "MEAN_MOTION_DDOT": 0}, "tle": {"line1": "1 66664U 25275A   25351.82928960  .00007629  00000+0  14328-3 0  9993", "line2": "2 66664  51.6309 117.2752 0003168 263.8701  96.1927 15.49640803  1289"}}, "geometry": {"type": "Point", "coordinates": [79.28387002356632, -36.64918184910612]}}, {"type": "Feature", "properties": {"norad_id": 66906, "name": "1998-067XS", "group": "stations", "lat": 1.538511223961718, "lon": 116.51509588525147, "alt_km": 416.2304511641323, "timestamp": "2025-12-18T04:58:33.358801+00:00", "meta": {"OBJECT_NAME": "1998-067XS", "OBJECT_ID": "1998-067XS", "EPOCH": "2025-12-17T16:35:43.301760", "MEAN_MOTION": 15.50834133, "ECCENTRICITY": 0.0003138, "INCLINATION": 51.6309, "RA_OF_ASC_NODE": 117.8563, "ARG_OF_PERICENTER": 226.0893, "MEAN_ANOMALY": 133.9837, "EPHEMERIS_TYPE": 0, "CLASSIFICATION_TYPE": "U", "NORAD_CAT_ID": 66906, "ELEMENT_SET_NO": 999, "REV_AT_EPOCH": 238, "BSTAR": 0.00042869394, "MEAN_MOTION_DOT": 0.00024822, "MEAN_MOTION_DDOT": 0}, "tle": {"line1": "1 66906U 98067XS  25351.69147340  .00024822  00000+0  42869-3 0  9996", "line2": "2 66906  51.6309 117.8563 0003138 226.0893 133.9837 15.50834133  2389"}}, "geometry": {"type": "Point", "coordinates": [116.51509588525147, 1.538511223961718]}}, {"type": "Feature", "properties": {"norad_id": 66907, "name": "1998-067XT", "group": "stations", "lat": 29.239847784101215, "lon": 141.54775396968157, "alt_km": 408.9341319506566, "timestamp": "2025-12-18T04:58:33.358810+00:00", "meta": {"OBJECT_NAME": "1998-067XT", "OBJECT_ID": "1998-067XT", "EPOCH": "2025-12-17T19:32:19.947264", "MEAN_MOTION": 15.52074588, "ECCENTRICITY": 0.00039845, "INCLINATION": 51.6304, "RA_OF_ASC_NODE": 117.1744, "ARG_OF_PERICENTER": 257.0045, "MEAN_ANOMALY": 103.05, "EPHEMERIS_TYPE": 0, "CLASSIFICATION_TYPE": "U", "NORAD_CAT_ID": 66907, "ELEMENT_SET_NO": 999, "REV_AT_EPOCH": 240, "BSTAR": 0.00089323104, "MEAN_MOTION_DOT": 0.00054815, "MEAN_MOTION_DDOT": 0}, "tle": {"line1": "1 66907U 98067XT  25351.81411976  .00054815  00000+0  89323-3 0  9991", "line2": "2 66907  51.6304 117.1744 0003984 257.0045 103.0500 15.52074588  2401"}}, "geometry": {"type": "Point", "coordinates": [141.54775396968157, 29.239847784101215]}}, {"type": "Feature", "properties": {"norad_id": 66908, "name": "1998-067XU", "group": "stations", "lat": 31.76463316133587, "lon": 144.58875102462815, "alt_km": 408.4541974308586, "timestamp": "2025-12-18T04:58:33.358823+00:00", "meta": {"OBJECT_NAME": "1998-067XU", "OBJECT_ID": "1998-067XU", "EPOCH": "2025-12-17T14:53:17.519424", "MEAN_MOTION": 15.52149323, "ECCENTRICITY": 0.00041086, "INCLINATION": 51.6303, "RA_OF_ASC_NODE": 118.1303, "ARG_OF_PERICENTER": 254.9738, "MEAN_ANOMALY": 105.0797, "EPHEMERIS_TYPE": 0, "CLASSIFICATION_TYPE": "U", "NORAD_CAT_ID": 66908, "ELEMENT_SET_NO": 999, "REV_AT_EPOCH": 237, "BSTAR": 0.00089135269, "MEAN_MOTION_DOT": 0.00054848, "MEAN_MOTION_DDOT": 0}, "tle": {"line1": "1 66908U 98067XU  25351.62034166  .00054848  00000+0  89135-3 0  9990", "line2": "2 66908  51.6303 118.1303 0004108 254.9738 105.0797 15.52149323  2373"}}, "geometry": {"type": "Point", "coordinates": [144.58875102462815, 31.76463316133587]}}, {"type": "Feature", "properties": {"norad_id": 66909, "name": "SILVERSAT", "group": "stations", "lat": 34.75536302334422, "lon": 148.5502366192207, "alt_km": 407.54754945522745, "timestamp": "2025-12-18T04:58:33.358833+00:00", "meta": {"OBJECT_NAME": "SILVERSAT", "OBJECT_ID": "1998-067XV", "EPOCH": "2025-12-17T14:52:13.125504", "MEAN_MOTION": 15.52286885, "ECCENTRICITY": 0.00039934, "INCLINATION": 51.6308, "RA_OF_ASC_NODE": 118.1251, "ARG_OF_PERICENTER": 257.3923, "MEAN_ANOMALY": 102.662, "EPHEMERIS_TYPE": 0, "CLASSIFICATION_TYPE": "U", "NORAD_CAT_ID": 66909, "ELEMENT_SET_NO": 999, "REV_AT_EPOCH": 237, "BSTAR": 0.00095195038, "MEAN_MOTION_DOT": 0.00058931, "MEAN_MOTION_DDOT": 0}, "tle": {"line1": "1 66909U 98067XV  25351.61959636  .00058931  00000+0  95195-3 0  9998", "line2": "2 66909  51.6308 118.1251 0003993 257.3923 102.6620 15.52286885  2378"}}, "geometry": {"type": "Point", "coordinates": [148.5502366192207, 34.75536302334422]}}, {"type": "Feature", "properties": {"norad_id": 66910, "name": "1998-067XW", "group": "stations", "lat": 40.83325816253964, "lon": 158.39286445573012, "alt_km": 407.29182161695644, "timestamp": "2025-12-18T04:58:33.358842+00:00", "meta": {"OBJECT_NAME": "1998-067XW", "OBJECT_ID": "1998-067XW", "EPOCH": "2025-12-17T14:49:41.645568", "MEAN_MOTION": 15.52327753, "ECCENTRICITY": 0.00045296, "INCLINATION": 51.6302, "RA_OF_ASC_NODE": 118.1137, "ARG_OF_PERICENTER": 233.5237, "MEAN_ANOMALY": 126.5336, "EPHEMERIS_TYPE": 0, "CLASSIFICATION_TYPE": "U", "NORAD_CAT_ID": 66910, "ELEMENT_SET_NO": 999, "REV_AT_EPOCH": 237, "BSTAR": 0.00083127757, "MEAN_MOTION_DOT": 0.00051432, "MEAN_MOTION_DDOT": 0}, "tle": {"line1": "1 66910U 98067XW  25351.61784312  .00051432  00000+0  83128-3 0  9999", "line2": "2 66910  51.6302 118.1137 0004529 233.5237 126.5336 15.52327753  2376"}}, "geometry": {"type": "Point", "coordinates": [158.39286445573012, 40.83325816253964]}}]}